{"type": "FeatureCollection", "features": [ {"type": "Feature", "properties": {"norad_id": 42969, "name": "SENTINEL-5P", "group": "resource", "lat": -48.23848805276896, "lon": 93.05457951540457, "alt_km": 834.3364084602754, "timestamp": "2025-12-10T09:57:44.361883+00:00", "meta": {"OBJECT_NAME": "SENTINEL-5P", "OBJECT_ID": "2017-064A", "EPOCH": "2025-12-09T19:21:14.019264", "MEAN_MOTION": 14.19516395, "ECCENTRICITY": 9.57e-05, "INCLINATION": 98.7781, "RA_OF_ASC_NODE": 282.4166, "ARG_OF_PERICENTER": 87.4658, "MEAN_ANOMALY": 272.6628, "EPHEMERIS_TYPE": 0, "CLASSIFICATION_TYPE": "U", "NORAD_CAT_ID": 42969, "ELEMENT_SET_NO": 999, "REV_AT_EPOCH": 42269, "BSTAR": 0.00010691, "MEAN_MOTION_DOT": 1.81e-06, "MEAN_MOTION_DDOT": 0}, "tle": {"line1": "1 42969U 17064A   25343.80641226  .00000181  00000+0  10691-3 0  9993", "line2": "2 42969  98.7781 282.4166 0000957  87.4658 272.6628 14.19516395422690"}}, "geometry": {"type": "Point", "coordinates": [93.05457951540457, -48.23848805276896]}}, {"type": "Feature", "properties": {"norad_id": 42987, "name": "SKYSAT-C11", "group": "resource", "lat": -5.734639015479223, "lon": 122.59857760763174, "alt_km": 428.7360489180883, "timestamp": "2025-12-10T09:57:44.361894+00:00", "meta": {"OBJECT_NAME": "SKYSAT-C11", "OBJECT_ID": "2017-068A", "EPOCH": "2025-12-09T20:01:05.077056", "MEAN_MOTION": 15.47255568, "ECCENTRICITY": 9.58e-05, "INCLINATION": 97.4145, "RA_OF_ASC_NODE": 121.2541, "ARG_OF_PERICENTER": 107.8305, "MEAN_ANOMALY": 252.305, "EPHEMERIS_TYPE": 0, "CLASSIFICATION_TYPE": "U", "NORAD_CAT_ID": 42987, "ELEMENT_SET_NO": 999, "REV_AT_EPOCH": 45386, "BSTAR": 0.00060358, "MEAN_MOTION_DOT": 0.00030725, "MEAN_MOTION_DDOT": 0}, "tle": {"line1": "1 42987U 17068A   25343.83408654  .00030725  00000+0  60358-3 0  9998", "line2": "2 42987  97.4145 121.2541 0000958 107.8305 252.3050 15.47255568453865"}}, "geometry": {"type": "Point", "coordinates": [122.59857760763174, -5.734639015479223]}}, {"type": "Feature", "properties": {"norad_id": 42988, "name": "SKYSAT-C10", "group": "resource", "lat": -23.076343506616862, "lon": -67.92567967510413, "alt_km": 475.62897365729714, "timestamp": "2025-12-10T09:57:44.361905+00:00", "meta": {"OBJECT_NAME": "SKYSAT-C10", "OBJECT_ID": "2017-068B", "EPOCH": "2025-12-10T04:22:33.077856", "MEAN_MOTION": 15.31972961, "ECCENTRICITY": 0.0005328, "INCLINATION": 97.4259, "RA_OF_ASC_NODE": 115.0265, "ARG_OF_PERICENTER": 111.1463, "MEAN_ANOMALY": 249.0348, "EPHEMERIS_TYPE": 0, "CLASSIFICATION_TYPE": "U", "NORAD_CAT_ID": 42988, "ELEMENT_SET_NO": 999, "REV_AT_EPOCH": 45340, "BSTAR": 0.00051429, "MEAN_MOTION_DOT": 0.0001582, "MEAN_MOTION_DDOT": 0}, "tle": {"line1": "1 42988U 17068B   25344.18232729  .00015820  00000+0  51429-3 0  9994", "line2": "2 42988  97.4259 115.0265 0005328 111.1463 249.0348 15.31972961453404"}}, "geometry": {"type": "Point", "coordinates": [-67.92567967510413, -23.076343506616862]}}, {"type": "Feature", "properties": {"norad_id": 42989, "name": "SKYSAT-C9", "group": "resource", "lat": 17.008919018448026, "lon": 112.36617422763204, "alt_km": 457.18958533673776, "timestamp": "2025-12-10T09:57:44.361915+00:00", "meta": {"OBJECT_NAME": "SKYSAT-C9", "OBJECT_ID": "2017-068C", "EPOCH": "2025-12-10T03:38:00.930624", "MEAN_MOTION": 15.35943054, "ECCENTRICITY": 0.0010699, "INCLINATION": 97.4188, "RA_OF_ASC_NODE": 114.3849, "ARG_OF_PERICENTER": 96.0336, "MEAN_ANOMALY": 264.2127, "EPHEMERIS_TYPE": 0, "CLASSIFICATION_TYPE": "U", "NORAD_CAT_ID": 42989, "ELEMENT_SET_NO": 999, "REV_AT_EPOCH": 45368, "BSTAR": 0.00051763, "MEAN_MOTION_DOT": 0.00018083, "MEAN_MOTION_DDOT": 0}, "tle": {"line1": "1 42989U 17068C   25344.15139966  .00018083  00000+0  51763-3 0  9996", "line2": "2 42989  97.4188 114.3849 0010699  96.0336 264.2127 15.35943054453682"}}, "geometry": {"type": "Point", "coordinates": [112.36617422763204, 17.008919018448026]}}, {"type": "Feature", "properties": {"norad_id": 42990, "name": "SKYSAT-C8", "group": "resource", "lat": 14.087586802730446, "lon": 112.52911095263954, "alt_km": 467.26861868115793, "timestamp": "2025-12-10T09:57:44.361925+00:00", "meta": {"OBJECT_NAME": "SKYSAT-C8", "OBJECT_ID": "2017-068D", "EPOCH": "2025-12-09T19:47:59.351136", "MEAN_MOTION": 15.32817038, "ECCENTRICITY": 0.0001784, "INCLINATION": 97.428, "RA_OF_ASC_NODE": 113.8129, "ARG_OF_PERICENTER": 1.5, "MEAN_ANOMALY": 358.6247, "EPHEMERIS_TYPE": 0, "CLASSIFICATION_TYPE": "U", "NORAD_CAT_ID": 42990, "ELEMENT_SET_NO": 999, "REV_AT_EPOCH": 45326, "BSTAR": 0.00051814, "MEAN_MOTION_DOT": 0.00016361, "MEAN_MOTION_DDOT": 0}, "tle": {"line1": "1 42990U 17068D   25343.82499249  .00016361  00000+0  51814-3 0  9998", "line2": "2 42990  97.4280 113.8129 0001784   1.5000 358.6247 15.32817038453260"}}, "geometry": {"type": "Point", "coordinates": [112.52911095263954, 14.087586802730446]}}, {"type": "Feature", "properties": {"norad_id": 42991, "name": "SKYSAT-C7", "group": "resource", "lat": -54.123409143008466, "lon": -74.94513306184676, "alt_km": 481.4174080529474, "timestamp": "2025-12-10T09:57:44.361936+00:00", "meta": {"OBJECT_NAME": "SKYSAT-C7", "OBJECT_ID": "2017-068E", "EPOCH": "2025-12-10T04:14:21.518016", "MEAN_MOTION": 15.3223349, "ECCENTRICITY": 0.0007744, "INCLINATION": 97.4288, "RA_OF_ASC_NODE": 115.2091, "ARG_OF_PERICENTER": 65.3128, "MEAN_ANOMALY": 294.8919, "EPHEMERIS_TYPE": 0, "CLASSIFICATION_TYPE": "U", "NORAD_CAT_ID": 42991, "ELEMENT_SET_NO": 999, "REV_AT_EPOCH": 45338, "BSTAR": 0.00050814, "MEAN_MOTION_DOT": 0.00015765, "MEAN_MOTION_DDOT": 0}, "tle": {"line1": "1 42991U 17068E   25344.17663794  .00015765  00000+0  50814-3 0  9992", "line2": "2 42991  97.4288 115.2091 0007744  65.3128 294.8919 15.32233490453388"}}, "geometry": {"type": "Point", "coordinates": [-74.94513306184676, -54.123409143008466]}}, {"type": "Feature", "properties": {"norad_id": 42992, "name": "SKYSAT-C6", "group": "resource", "lat": -1.5563787575392976, "lon": 116.09202431525037, "alt_km": 474.9204636059003, "timestamp": "2025-12-10T09:57:44.361946+00:00", "meta": {"OBJECT_NAME": "SKYSAT-C6", "OBJECT_ID": "2017-068F", "EPOCH": "2025-12-10T03:41:46.890816", "MEAN_MOTION": 15.31400809, "ECCENTRICITY": 0.0005227, "INCLINATION": 97.4322, "RA_OF_ASC_NODE": 115.6271, "ARG_OF_PERICENTER": 89.597, "MEAN_ANOMALY": 270.587, "EPHEMERIS_TYPE": 0, "CLASSIFICATION_TYPE": "U", "NORAD_CAT_ID": 42992, "ELEMENT_SET_NO": 999, "REV_AT_EPOCH": 45336, "BSTAR": 0.00048225, "MEAN_MOTION_DOT": 0.00014564, "MEAN_MOTION_DDOT": 0}, "tle": {"line1": "1 42992U 17068F   25344.15401494  .00014564  00000+0  48225-3 0  9997", "line2": "2 42992  97.4322 115.6271 0005227  89.5970 270.5870 15.31400809453363"}}, "geometry": {"type": "Point", "coordinates": [116.09202431525037, -1.5563787575392976]}}, {"type": "Feature", "properties": {"norad_id": 43111, "name": "CARTOSAT-2F", "group": "resource", "lat": -26.79315985812634, "lon": -141.68925141891023, "alt_km": 513.696789131287, "timestamp": "2025-12-10T09:57:44.361956+00:00", "meta": {"OBJECT_NAME": "CARTOSAT-2F", "OBJECT_ID": "2018-004A", "EPOCH": "2025-12-10T04:18:43.403328", "MEAN_MOTION": 15.19230477, "ECCENTRICITY": 7.61e-05, "INCLINATION": 97.4313, "RA_OF_ASC_NODE": 41.8584, "ARG_OF_PERICENTER": 149.1348, "MEAN_ANOMALY": 210.9932, "EPHEMERIS_TYPE": 0, "CLASSIFICATION_TYPE": "U", "NORAD_CAT_ID": 43111, "ELEMENT_SET_NO": 999, "REV_AT_EPOCH": 43863, "BSTAR": 0.00028203, "MEAN_MOTION_DOT": 5.874e-05, "MEAN_MOTION_DDOT": 0}, "tle": {"line1": "1 43111U 18004A   25344.17966902  .00005874  00000+0  28203-3 0  9992", "line2": "2 43111  97.4313  41.8584 0000761 149.1348 210.9932 15.19230477438632"}}, "geometry": {"type": "Point", "coordinates": [-141.68925141891023, -26.79315985812634]}}, {"type": "Feature", "properties": {"norad_id": 43259, "name": "GAOFEN-1 02", "group": "resource", "lat": -28.882363587756522, "lon": 46.69832099363973, "alt_km": 646.7506784235229, "timestamp": "2025-12-10T09:57:44.361966+00:00", "meta": {"OBJECT_NAME": "GAOFEN-1 02", "OBJECT_ID": "2018-031A", "EPOCH": "2025-12-10T05:12:53.574336", "MEAN_MOTION": 14.76472591, "ECCENTRICITY": 0.0001491, "INCLINATION": 98.0805, "RA_OF_ASC_NODE": 42.0056, "ARG_OF_PERICENTER": 220.4185, "MEAN_ANOMALY": 139.6913, "EPHEMERIS_TYPE": 0, "CLASSIFICATION_TYPE": "U", "NORAD_CAT_ID": 43259, "ELEMENT_SET_NO": 999, "REV_AT_EPOCH": 41481, "BSTAR": 0.00022931, "MEAN_MOTION_DOT": 1.544e-05, "MEAN_MOTION_DDOT": 0}, "tle": {"line1": "1 43259U 18031A   25344.21728674  .00001544  00000+0  22931-3 0  9994", "line2": "2 43259  98.0805  42.0056 0001491 220.4185 139.6913 14.76472591414815"}}, "geometry": {"type": "Point", "coordinates": [46.69832099363973, -28.882363587756522]}}, {"type": "Feature", "properties": {"norad_id": 43260, "name": "GAOFEN-1 03", "group": "resource", "lat": 81.10105756794967, "lon": -23.055626811026855, "alt_km": 633.7841673791345, "timestamp": "2025-12-10T09:57:44.361976+00:00", "meta": {"OBJECT_NAME": "GAOFEN-1 03", "OBJECT_ID": "2018-031B", "EPOCH": "2025-12-10T04:41:36.694176", "MEAN_MOTION": 14.76428047, "ECCENTRICITY": 0.0002156, "INCLINATION": 98.0802, "RA_OF_ASC_NODE": 41.861, "ARG_OF_PERICENTER": 333.5207, "MEAN_ANOMALY": 26.5892, "EPHEMERIS_TYPE": 0, "CLASSIFICATION_TYPE": "U", "NORAD_CAT_ID": 43260, "ELEMENT_SET_NO": 999, "REV_AT_EPOCH": 41480, "BSTAR": 0.00020998, "MEAN_MOTION_DOT": 1.408e-05, "MEAN_MOTION_DDOT": 0}, "tle": {"line1": "1 43260U 18031B   25344.19556359  .00001408  00000+0  20998-3 0  9992", "line2": "2 43260  98.0802  41.8610 0002156 333.5207  26.5892 14.76428047414803"}}, "geometry": {"type": "Point", "coordinates": [-23.055626811026855, 81.10105756794967]}}]}